<?xml version="1.0" encoding="UTF-8"?>
<ndm xmlns:xsi="http://www.w3.org/2001/XMLSchema-instance" xsi:noNamespaceSchemaLocation="https://sanaregistry.org/r/ndmxml_unqualified/ndmxml-2.0.0-master-2.0.xsd">
<omm id="CCSDS_OMM_VERS" version="2.0">
<header><CREATION_DATE/><ORIGINATOR/></header><body><segment><metadata><OBJECT_NAME>KUIPER-00016</OBJECT_NAME><OBJECT_ID>2025-088J</OBJECT_ID><CENTER_NAME>EARTH</CENTER_NAME><REF_FRAME>TEME</REF_FRAME><TIME_SYSTEM>UTC</TIME_SYSTEM><MEAN_ELEMENT_THEORY>SGP4</MEAN_ELEMENT_THEORY></metadata><data><meanElements><EPOCH>2026-01-27T12:00:01.999296</EPOCH><MEAN_MOTION>14.79474453</MEAN_MOTION><ECCENTRICITY>.0008677</ECCENTRICITY><INCLINATION>51.9004</INCLINATION><RA_OF_ASC_NODE>293.7305</RA_OF_ASC_NODE><ARG_OF_PERICENTER>298.2264</ARG_OF_PERICENTER><MEAN_ANOMALY>335.9681</MEAN_ANOMALY></meanElements><tleParameters><EPHEMERIS_TYPE>0</EPHEMERIS_TYPE><CLASSIFICATION_TYPE>U</CLASSIFICATION_TYPE><NORAD_CAT_ID>63732</NORAD_CAT_ID><ELEMENT_SET_NO>999</ELEMENT_SET_NO><REV_AT_EPOCH>567</REV_AT_EPOCH><BSTAR>.80718E-3</BSTAR><MEAN_MOTION_DOT>.5873E-4</MEAN_MOTION_DOT><MEAN_MOTION_DDOT>0</MEAN_MOTION_DDOT></tleParameters></data></segment></body></omm>
<omm id="CCSDS_OMM_VERS" version="2.0">
<header><CREATION_DATE/><ORIGINATOR/></header><body><segment><metadata><OBJECT_NAME>KUIPER-00018</OBJECT_NAME><OBJECT_ID>2025-088K</OBJECT_ID><CENTER_NAME>EARTH</CENTER_NAME><REF_FRAME>TEME</REF_FRAME><TIME_SYSTEM>UTC</TIME_SYSTEM><MEAN_ELEMENT_THEORY>SGP4</MEAN_ELEMENT_THEORY></metadata><data><meanElements><EPOCH>2026-01-26T17:15:08.167392</EPOCH><MEAN_MOTION>14.79966322</MEAN_MOTION><ECCENTRICITY>.00094502</ECCENTRICITY><INCLINATION>51.9030</INCLINATION><RA_OF_ASC_NODE>286.1543</RA_OF_ASC_NODE><ARG_OF_PERICENTER>318.3296</ARG_OF_PERICENTER><MEAN_ANOMALY>41.6946</MEAN_ANOMALY></meanElements><tleParameters><EPHEMERIS_TYPE>0</EPHEMERIS_TYPE><CLASSIFICATION_TYPE>U</CLASSIFICATION_TYPE><NORAD_CAT_ID>63733</NORAD_CAT_ID><ELEMENT_SET_NO>999</ELEMENT_SET_NO><REV_AT_EPOCH>4127</REV_AT_EPOCH><BSTAR>.81642843E-3</BSTAR><MEAN_MOTION_DOT>.6015E-4</MEAN_MOTION_DOT><MEAN_MOTION_DDOT>0</MEAN_MOTION_DDOT></tleParameters></data></segment></body></omm>
<omm id="CCSDS_OMM_VERS" version="2.0">
<header><CREATION_DATE/><ORIGINATOR/></header><body><segment><metadata><OBJECT_NAME>KUIPER-00019</OBJECT_NAME><OBJECT_ID>2025-088L</OBJECT_ID><CENTER_NAME>EARTH</CENTER_NAME><REF_FRAME>TEME</REF_FRAME><TIME_SYSTEM>UTC</TIME_SYSTEM><MEAN_ELEMENT_THEORY>SGP4</MEAN_ELEMENT_THEORY></metadata><data><meanElements><EPOCH>2026-01-26T17:16:44.818752</EPOCH><MEAN_MOTION>14.79957275</MEAN_MOTION><ECCENTRICITY>.00022144</ECCENTRICITY><INCLINATION>51.8952</INCLINATION><RA_OF_ASC_NODE>284.6839</RA_OF_ASC_NODE><ARG_OF_PERICENTER>35.5104</ARG_OF_PERICENTER><MEAN_ANOMALY>324.6005</MEAN_ANOMALY></meanElements><tleParameters><EPHEMERIS_TYPE>0</EPHEMERIS_TYPE><CLASSIFICATION_TYPE>U</CLASSIFICATION_TYPE><NORAD_CAT_ID>63734</NORAD_CAT_ID><ELEMENT_SET_NO>999</ELEMENT_SET_NO><REV_AT_EPOCH>4129</REV_AT_EPOCH><BSTAR>.87986875E-3</BSTAR><MEAN_MOTION_DOT>.6496E-4</MEAN_MOTION_DOT><MEAN_MOTION_DDOT>0</MEAN_MOTION_DDOT></tleParameters></data></segment></body></omm>
<omm id="CCSDS_OMM_VERS" version="2.0">
<header><CREATION_DATE/><ORIGINATOR/></header><body><segment><metadata><OBJECT_NAME>KUIPER-00020</OBJECT_NAME><OBJECT_ID>2025-088M</OBJECT_ID><CENTER_NAME>EARTH</CENTER_NAME><REF_FRAME>TEME</REF_FRAME><TIME_SYSTEM>UTC</TIME_SYSTEM><MEAN_ELEMENT_THEORY>SGP4</MEAN_ELEMENT_THEORY></metadata><data><meanElements><EPOCH>2026-01-26T17:11:15.586368</EPOCH><MEAN_MOTION>14.79923763</MEAN_MOTION><ECCENTRICITY>.00067227</ECCENTRICITY><INCLINATION>51.9031</INCLINATION><RA_OF_ASC_NODE>288.6919</RA_OF_ASC_NODE><ARG_OF_PERICENTER>313.3732</ARG_OF_PERICENTER><MEAN_ANOMALY>46.6670</MEAN_ANOMALY></meanElements><tleParameters><EPHEMERIS_TYPE>0</EPHEMERIS_TYPE><CLASSIFICATION_TYPE>U</CLASSIFICATION_TYPE><NORAD_CAT_ID>63735</NORAD_CAT_ID><ELEMENT_SET_NO>999</ELEMENT_SET_NO><REV_AT_EPOCH>4144</REV_AT_EPOCH><BSTAR>.10439721E-2</BSTAR><MEAN_MOTION_DOT>.7746E-4</MEAN_MOTION_DOT><MEAN_MOTION_DDOT>0</MEAN_MOTION_DDOT></tleParameters></data></segment></body></omm>
<omm id="CCSDS_OMM_VERS" version="2.0">
<header><CREATION_DATE/><ORIGINATOR/></header><body><segment><metadata><OBJECT_NAME>KUIPER-00021</OBJECT_NAME><OBJECT_ID>2025-088N</OBJECT_ID><CENTER_NAME>EARTH</CENTER_NAME><REF_FRAME>TEME</REF_FRAME><TIME_SYSTEM>UTC</TIME_SYSTEM><MEAN_ELEMENT_THEORY>SGP4</MEAN_ELEMENT_THEORY></metadata><data><meanElements><EPOCH>2026-01-26T17:08:54.791520</EPOCH><MEAN_MOTION>14.79941420</MEAN_MOTION><ECCENTRICITY>.00046579</ECCENTRICITY><INCLINATION>51.9025</INCLINATION><RA_OF_ASC_NODE>289.6965</RA_OF_ASC_NODE><ARG_OF_PERICENTER>308.7677</ARG_OF_PERICENTER><MEAN_ANOMALY>51.2869</MEAN_ANOMALY></meanElements><tleParameters><EPHEMERIS_TYPE>0</EPHEMERIS_TYPE><CLASSIFICATION_TYPE>U</CLASSIFICATION_TYPE><NORAD_CAT_ID>63736</NORAD_CAT_ID><ELEMENT_SET_NO>999</ELEMENT_SET_NO><REV_AT_EPOCH>4126</REV_AT_EPOCH><BSTAR>.2931251E-5</BSTAR><MEAN_MOTION_DOT>-.2E-5</MEAN_MOTION_DOT><MEAN_MOTION_DDOT>0</MEAN_MOTION_DDOT></tleParameters></data></segment></body></omm>
<omm id="CCSDS_OMM_VERS" version="2.0">
<header><CREATION_DATE/><ORIGINATOR/></header><body><segment><metadata><OBJECT_NAME>KUIPER-00023</OBJECT_NAME><OBJECT_ID>2025-088P</OBJECT_ID><CENTER_NAME>EARTH</CENTER_NAME><REF_FRAME>TEME</REF_FRAME><TIME_SYSTEM>UTC</TIME_SYSTEM><MEAN_ELEMENT_THEORY>SGP4</MEAN_ELEMENT_THEORY></metadata><data><meanElements><EPOCH>2026-01-27T10:57:08.987328</EPOCH><MEAN_MOTION>14.79979864</MEAN_MOTION><ECCENTRICITY>.0009728</ECCENTRICITY><INCLINATION>51.9007</INCLINATION><RA_OF_ASC_NODE>287.8803</RA_OF_ASC_NODE><ARG_OF_PERICENTER>326.0502</ARG_OF_PERICENTER><MEAN_ANOMALY>33.9836</MEAN_ANOMALY></meanElements><tleParameters><EPHEMERIS_TYPE>0</EPHEMERIS_TYPE><CLASSIFICATION_TYPE>U</CLASSIFICATION_TYPE><NORAD_CAT_ID>63737</NORAD_CAT_ID><ELEMENT_SET_NO>999</ELEMENT_SET_NO><REV_AT_EPOCH>4165</REV_AT_EPOCH><BSTAR>.11448E-2</BSTAR><MEAN_MOTION_DOT>.8531E-4</MEAN_MOTION_DOT><MEAN_MOTION_DDOT>0</MEAN_MOTION_DDOT></tleParameters></data></segment></body></omm>
<omm id="CCSDS_OMM_VERS" version="2.0">
<header><CREATION_DATE/><ORIGINATOR/></header><body><segment><metadata><OBJECT_NAME>KUIPER-00024</OBJECT_NAME><OBJECT_ID>2025-088Q</OBJECT_ID><CENTER_NAME>EARTH</CENTER_NAME><REF_FRAME>TEME</REF_FRAME><TIME_SYSTEM>UTC</TIME_SYSTEM><MEAN_ELEMENT_THEORY>SGP4</MEAN_ELEMENT_THEORY></metadata><data><meanElements><EPOCH>2026-01-26T17:26:58.292448</EPOCH><MEAN_MOTION>14.79939498</MEAN_MOTION><ECCENTRICITY>.00006515</ECCENTRICITY><INCLINATION>51.9067</INCLINATION><RA_OF_ASC_NODE>278.6637</RA_OF_ASC_NODE><ARG_OF_PERICENTER>107.6354</ARG_OF_PERICENTER><MEAN_ANOMALY>252.4680</MEAN_ANOMALY></meanElements><tleParameters><EPHEMERIS_TYPE>0</EPHEMERIS_TYPE><CLASSIFICATION_TYPE>U</CLASSIFICATION_TYPE><NORAD_CAT_ID>63738</NORAD_CAT_ID><ELEMENT_SET_NO>999</ELEMENT_SET_NO><REV_AT_EPOCH>4184</REV_AT_EPOCH><BSTAR>.32059121E-3</BSTAR><MEAN_MOTION_DOT>.2224E-4</MEAN_MOTION_DOT><MEAN_MOTION_DDOT>0</MEAN_MOTION_DDOT></tleParameters></data></segment></body></omm>
<omm id="CCSDS_OMM_VERS" version="2.0">
<header><CREATION_DATE/><ORIGINATOR/></header><body><segment><metadata><OBJECT_NAME>KUIPER-00025</OBJECT_NAME><OBJECT_ID>2025-088R</OBJECT_ID><CENTER_NAME>EARTH</CENTER_NAME><REF_FRAME>TEME</REF_FRAME><TIME_SYSTEM>UTC</TIME_SYSTEM><MEAN_ELEMENT_THEORY>SGP4</MEAN_ELEMENT_THEORY></metadata><data><meanElements><EPOCH>2026-01-26T17:12:58.110336</EPOCH><MEAN_MOTION>14.79929239</MEAN_MOTION><ECCENTRICITY>.00006205</ECCENTRICITY><INCLINATION>51.9042</INCLINATION><RA_OF_ASC_NODE>287.2164</RA_OF_ASC_NODE><ARG_OF_PERICENTER>96.2778</ARG_OF_PERICENTER><MEAN_ANOMALY>263.8255</MEAN_ANOMALY></meanElements><tleParameters><EPHEMERIS_TYPE>0</EPHEMERIS_TYPE><CLASSIFICATION_TYPE>U</CLASSIFICATION_TYPE><NORAD_CAT_ID>63739</NORAD_CAT_ID><ELEMENT_SET_NO>999</ELEMENT_SET_NO><REV_AT_EPOCH>4158</REV_AT_EPOCH><BSTAR>.95461331E-3</BSTAR><MEAN_MOTION_DOT>.7063E-4</MEAN_MOTION_DOT><MEAN_MOTION_DDOT>0</MEAN_MOTION_DDOT></tleParameters></data></segment></body></omm>

</ndm>
