KUIPER-00016            
1 63732U 25088J   26027.50002314  .00005873  00000+0  80718-3 0  9995
2 63732  51.9004 293.7305 0008677 298.2264 335.9681 14.79474453  5673
KUIPER-00018            
1 63733U 25088K   26026.71884453  .00006015  00000+0  81643-3 0  9997
2 63733  51.9030 286.1543 0009450 318.3296  41.6946 14.79966322 41274
KUIPER-00019            
1 63734U 25088L   26026.71996318  .00006496  00000+0  87987-3 0  9992
2 63734  51.8952 284.6839 0002214  35.5104 324.6005 14.79957275 41294
KUIPER-00020            
1 63735U 25088M   26026.71615262  .00007746  00000+0  10440-2 0  9997
2 63735  51.9031 288.6919 0006722 313.3732  46.6670 14.79923763 41440
KUIPER-00021            
1 63736U 25088N   26026.71452305 -.00000200  00000+0  29313-5 0  9996
2 63736  51.9025 289.6965 0004657 308.7677  51.2869 14.79941420 41269
KUIPER-00023            
1 63737U 25088P   26027.45635402  .00008531  00000+0  11448-2 0  9991
2 63737  51.9007 287.8803 0009728 326.0502  33.9836 14.79979864 41652
KUIPER-00024            
1 63738U 25088Q   26026.72706357  .00002224  00000+0  32059-3 0  9994
2 63738  51.9067 278.6637 0000651 107.6354 252.4680 14.79939498 41841
KUIPER-00025            
1 63739U 25088R   26026.71733924  .00007063  00000+0  95461-3 0  9996
2 63739  51.9042 287.2164 0000620  96.2778 263.8255 14.79929239 41582
